CZ-4B DEB
1 43430U 17034F   25329.66121640  .00013543  00000+0  11477-2 0  9993
2 43430  42.9922 106.4203 0130147  19.7173 340.8634 14.91492602445946